{
  "type": "FeatureCollection",
  "features": [
    {
      "type": "Feature",
      "properties": {
        "norad_id": 66746,
        "name": "TRANSPORTER-15CJ",
        "group": "last-30-days",
        "lat": -71.04353467709592,
        "lon": 94.30234344435333,
        "alt_km": 515.6817553688679,
        "timestamp": "2025-12-26T13:39:17.664921+00:00",
        "meta_object_name": "TRANSPORTER-15CJ",
        "meta_object_id": "2025-276CJ",
        "meta_epoch": "2025-12-26T06:04:17.485824",
        "meta_mean_motion": 15.19464736,
        "meta_eccentricity": 0.00134217,
        "meta_inclination": 97.3831,
        "meta_ra_of_asc_node": 71.8136,
        "meta_arg_of_pericenter": 192.694,
        "meta_mean_anomaly": 167.3959,
        "meta_ephemeris_type": 0,
        "meta_classification_type": "U",
        "meta_norad_cat_id": 66746,
        "meta_element_set_no": 999,
        "meta_rev_at_epoch": 417,
        "meta_bstar": 0.00083165848,
        "meta_mean_motion_dot": 0.00017639,
        "meta_mean_motion_ddot": 0,
        "tle_line1": "1 66746U 25276CJ  25360.25298016  .00017639  00000+0  83166-3 0  9992",
        "tle_line2": "2 66746  97.3831  71.8136 0013421 192.6940 167.3959 15.19464736  4178"
      },
      "geometry": {
        "type": "Point",
        "coordinates": [
          94.30234344435333,
          -71.04353467709592
        ]
      }
    },
    {
      "type": "Feature",
      "properties": {
        "norad_id": 66747,
        "name": "W-SERIES 5",
        "group": "last-30-days",
        "lat": -78.82954671972499,
        "lon": 113.53528483892872,
        "alt_km": 520.5536478766435,
        "timestamp": "2025-12-26T13:39:17.664933+00:00",
        "meta_object_name": "W-SERIES 5",
        "meta_object_id": "2025-276CK",
        "meta_epoch": "2025-12-26T06:06:07.050528",
        "meta_mean_motion": 15.17575089,
        "meta_eccentricity": 0.00014417,
        "meta_inclination": 97.4405,
        "meta_ra_of_asc_node": 71.7881,
        "meta_arg_of_pericenter": 187.1644,
        "meta_mean_anomaly": 172.957,
        "meta_ephemeris_type": 0,
        "meta_classification_type": "U",
        "meta_norad_cat_id": 66747,
        "meta_element_set_no": 999,
        "meta_rev_at_epoch": 417,
        "meta_bstar": 0.00041184233,
        "meta_mean_motion_dot": 8.209e-05,
        "meta_mean_motion_ddot": 0,
        "tle_line1": "1 66747U 25276CK  25360.25424827  .00008209  00000+0  41184-3 0  9991",
        "tle_line2": "2 66747  97.4405  71.7881 0001441 187.1644 172.9570 15.17575089  4175"
      },
      "geometry": {
        "type": "Point",
        "coordinates": [
          113.53528483892872,
          -78.82954671972499
        ]
      }
    },
    {
      "type": "Feature",
      "properties": {
        "norad_id": 66748,
        "name": "TRANSPORTER-15CL",
        "group": "last-30-days",
        "lat": -20.54587740346333,
        "lon": 74.92798233311422,
        "alt_km": 516.2196003993531,
        "timestamp": "2025-12-26T13:39:17.664943+00:00",
        "meta_object_name": "TRANSPORTER-15CL",
        "meta_object_id": "2025-276CL",
        "meta_epoch": "2025-12-26T05:50:21.107040",
        "meta_mean_motion": 15.1864115,
        "meta_eccentricity": 0.0002131,
        "meta_inclination": 97.4397,
        "meta_ra_of_asc_node": 71.8003,
        "meta_arg_of_pericenter": 208.0481,
        "meta_mean_anomaly": 152.0639,
        "meta_ephemeris_type": 0,
        "meta_classification_type": "U",
        "meta_norad_cat_id": 66748,
        "meta_element_set_no": 999,
        "meta_rev_at_epoch": 417,
        "meta_bstar": 0.00094551903,
        "meta_mean_motion_dot": 0.00019552,
        "meta_mean_motion_ddot": 0,
        "tle_line1": "1 66748U 25276CL  25360.24329985  .00019552  00000+0  94552-3 0  9990",
        "tle_line2": "2 66748  97.4397  71.8003 0002131 208.0481 152.0639 15.18641150  4171"
      },
      "geometry": {
        "type": "Point",
        "coordinates": [
          74.92798233311422,
          -20.54587740346333
        ]
      }
    },
    {
      "type": "Feature",
      "properties": {
        "norad_id": 66749,
        "name": "TRANSPORTER-15CM",
        "group": "last-30-days",
        "lat": -53.68480692608168,
        "lon": 82.34395034609213,
        "alt_km": 520.1417371252883,
        "timestamp": "2025-12-26T13:39:17.664955+00:00",
        "meta_object_name": "TRANSPORTER-15CM",
        "meta_object_id": "2025-276CM",
        "meta_epoch": "2025-12-26T05:59:00.531744",
        "meta_mean_motion": 15.17920065,
        "meta_eccentricity": 0.00021791,
        "meta_inclination": 97.4394,
        "meta_ra_of_asc_node": 71.7891,
        "meta_arg_of_pericenter": 175.9808,
        "meta_mean_anomaly": 184.1444,
        "meta_ephemeris_type": 0,
        "meta_classification_type": "U",
        "meta_norad_cat_id": 66749,
        "meta_element_set_no": 999,
        "meta_rev_at_epoch": 417,
        "meta_bstar": 0.00034685686,
        "meta_mean_motion_dot": 6.971e-05,
        "meta_mean_motion_ddot": 0,
        "tle_line1": "1 66749U 25276CM  25360.24931171  .00006971  00000+0  34686-3 0  9990",
        "tle_line2": "2 66749  97.4394  71.7891 0002179 175.9808 184.1444 15.17920065  4174"
      },
      "geometry": {
        "type": "Point",
        "coordinates": [
          82.34395034609213,
          -53.68480692608168
        ]
      }
    },
    {
      "type": "Feature",
      "properties": {
        "norad_id": 66750,
        "name": "TRANSPORTER-15CN",
        "group": "last-30-days",
        "lat": -35.49450763159975,
        "lon": 77.48082497494289,
        "alt_km": 521.9433119090272,
        "timestamp": "2025-12-26T13:39:17.664965+00:00",
        "meta_object_name": "TRANSPORTER-15CN",
        "meta_object_id": "2025-276CN",
        "meta_epoch": "2025-12-26T05:54:06.293952",
        "meta_mean_motion": 15.17898833,
        "meta_eccentricity": 0.00047517,
        "meta_inclination": 97.4466,
        "meta_ra_of_asc_node": 71.8109,
        "meta_arg_of_pericenter": 160.3578,
        "meta_mean_anomaly": 199.784,
        "meta_ephemeris_type": 0,
        "meta_classification_type": "U",
        "meta_norad_cat_id": 66750,
        "meta_element_set_no": 999,
        "meta_rev_at_epoch": 417,
        "meta_bstar": -0.005878946,
        "meta_mean_motion_dot": -0.00117308,
        "meta_mean_motion_ddot": 0,
        "tle_line1": "1 66750U 25276CN  25360.24590618 -.00117308  00000+0 -58789-2 0  9997",
        "tle_line2": "2 66750  97.4466  71.8109 0004751 160.3578 199.7840 15.17898833  4178"
      },
      "geometry": {
        "type": "Point",
        "coordinates": [
          77.48082497494289,
          -35.49450763159975
        ]
      }
    },
    {
      "type": "Feature",
      "properties": {
        "norad_id": 66751,
        "name": "ICEYE-X58",
        "group": "last-30-days",
        "lat": -56.51806687221028,
        "lon": 83.5065251415566,
        "alt_km": 520.1744955849463,
        "timestamp": "2025-12-26T13:39:17.664975+00:00",
        "meta_object_name": "ICEYE-X58",
        "meta_object_id": "2025-276CP",
        "meta_epoch": "2025-12-26T05:59:45.172032",
        "meta_mean_motion": 15.1783727,
        "meta_eccentricity": 0.00026227,
        "meta_inclination": 97.4406,
        "meta_ra_of_asc_node": 71.7971,
        "meta_arg_of_pericenter": 190.975,
        "meta_mean_anomaly": 169.1427,
        "meta_ephemeris_type": 0,
        "meta_classification_type": "U",
        "meta_norad_cat_id": 66751,
        "meta_element_set_no": 999,
        "meta_rev_at_epoch": 417,
        "meta_bstar": 0.0004276738,
        "meta_mean_motion_dot": 8.593e-05,
        "meta_mean_motion_ddot": 0,
        "tle_line1": "1 66751U 25276CP  25360.24982838  .00008593  00000+0  42767-3 0  9990",
        "tle_line2": "2 66751  97.4406  71.7971 0002622 190.9750 169.1427 15.17837270  4175"
      },
      "geometry": {
        "type": "Point",
        "coordinates": [
          83.5065251415566,
          -56.51806687221028
        ]
      }
    },
    {
      "type": "Feature",
      "properties": {
        "norad_id": 66752,
        "name": "ICEYE-X59",
        "group": "last-30-days",
        "lat": -74.5951219851388,
        "lon": 100.41373368694495,
        "alt_km": 519.7665624174942,
        "timestamp": "2025-12-26T13:39:17.664987+00:00",
        "meta_object_name": "ICEYE-X59",
        "meta_object_id": "2025-276CQ",
        "meta_epoch": "2025-12-26T06:04:45.997824",
        "meta_mean_motion": 15.17637773,
        "meta_eccentricity": 0.00020326,
        "meta_inclination": 97.44,
        "meta_ra_of_asc_node": 71.792,
        "meta_arg_of_pericenter": 217.1428,
        "meta_mean_anomaly": 142.9665,
        "meta_ephemeris_type": 0,
        "meta_classification_type": "U",
        "meta_norad_cat_id": 66752,
        "meta_element_set_no": 999,
        "meta_rev_at_epoch": 417,
        "meta_bstar": 0.00040475109,
        "meta_mean_motion_dot": 8.081e-05,
        "meta_mean_motion_ddot": 0,
        "tle_line1": "1 66752U 25276CQ  25360.25331016  .00008081  00000+0  40475-3 0  9994",
        "tle_line2": "2 66752  97.4400  71.7920 0002032 217.1428 142.9665 15.17637773  4172"
      },
      "geometry": {
        "type": "Point",
        "coordinates": [
          100.41373368694495,
          -74.5951219851388
        ]
      }
    }
  ]
}